start=new Date('2021-09-28T00:00:00.000Z').valueOf();
sats=[{"MEAN_ANOMALY":"272.1858","REV_AT_EPOCH":"5955","MEAN_MOTION_DDOT":"0.0000000000000","FILE":"3131463","CENTER_NAME":"EARTH","PERIOD":"95.591","COUNTRY_CODE":"US","OBJECT_ID":"2020-062J","ELEMENT_SET_NO":"999","INCLINATION":"53.0535","RCS_SIZE":"LARGE","APOAPSIS":"548.478","CLASSIFICATION_TYPE":"U","PERIAPSIS":"545.838","SITE":"AFETR","RA_OF_ASC_NODE":"106.4249","TLE_LINE1":"1 46333U 20062J   21270.82844744  .00000418  00000-0  46972-4 0  9997","OBJECT_TYPE":"PAYLOAD","GP_ID":"185668842","TLE_LINE2":"2 46333  53.0535 106.4249 0001906  87.9349 272.1858 15.06418198 59554","MEAN_ELEMENT_THEORY":"SGP4","BSTAR":"0.00004697200000","EPOCH":"2021-09-27T19:52:57.858816","SEMIMAJOR_AXIS":"6925.293","LAUNCH_DATE":"2020-09-03","ARG_OF_PERICENTER":"87.9349","NORAD_CAT_ID":"46333","MEAN_MOTION":"15.06418198","REF_FRAME":"TEME","EPHEMERIS_TYPE":"0","ECCENTRICITY":"0.00019060","DECAY_DATE":null,"TIME_SYSTEM":"UTC","OBJECT_NAME":"STARLINK-1723","MEAN_MOTION_DOT":"0.00000418"},{"LAUNCH_DATE":"2020-09-03","ARG_OF_PERICENTER":"107.0149","MEAN_ELEMENT_THEORY":"SGP4","TLE_LINE2":"2 46334  53.0557  87.4184 0001874 107.0149 253.1045 15.06387789 59807","BSTAR":"-0.00006114500000","EPOCH":"2021-09-27T14:30:30.414816","SEMIMAJOR_AXIS":"6925.386","EPHEMERIS_TYPE":"0","ECCENTRICITY":"0.00018740","DECAY_DATE":null,"TIME_SYSTEM":"UTC","OBJECT_NAME":"STARLINK-1725","MEAN_MOTION_DOT":"-0.00001192","MEAN_MOTION":"15.06387789","NORAD_CAT_ID":"46334","REF_FRAME":"TEME","PERIOD":"95.593","COUNTRY_CODE":"US","OBJECT_ID":"2020-062K","ELEMENT_SET_NO":"999","INCLINATION":"53.0557","RCS_SIZE":"LARGE","MEAN_ANOMALY":"253.1045","REV_AT_EPOCH":"5980","MEAN_MOTION_DDOT":"0.0000000000000","FILE":"3131463","CENTER_NAME":"EARTH","GP_ID":"185667594","APOAPSIS":"548.549","CLASSIFICATION_TYPE":"U","PERIAPSIS":"545.953","SITE":"AFETR","TLE_LINE1":"1 46334U 20062K   21270.60451869 -.00001192  00000-0 -61145-4 0  9997","RA_OF_ASC_NODE":"87.4184","OBJECT_TYPE":"PAYLOAD"},{"SEMIMAJOR_AXIS":"6925.290","EPOCH":"2021-09-27T15:48:46.562400","BSTAR":"0.00016499000000","TLE_LINE2":"2 46335  53.0523 107.1774 0001826  82.4481 277.6715 15.06419217 59535","MEAN_ELEMENT_THEORY":"SGP4","ARG_OF_PERICENTER":"82.4481","LAUNCH_DATE":"2020-09-03","REF_FRAME":"TEME","NORAD_CAT_ID":"46335","MEAN_MOTION":"15.06419217","MEAN_MOTION_DOT":"0.00002178","OBJECT_NAME":"STARLINK-1727","ECCENTRICITY":"0.00018260","DECAY_DATE":null,"TIME_SYSTEM":"UTC","EPHEMERIS_TYPE":"0","CENTER_NAME":"EARTH","FILE":"3131463","MEAN_MOTION_DDOT":"0.0000000000000","MEAN_ANOMALY":"277.6715","REV_AT_EPOCH":"5953","RCS_SIZE":"LARGE","INCLINATION":"53.0523","ELEMENT_SET_NO":"999","OBJECT_ID":"2020-062L","COUNTRY_CODE":"US","PERIOD":"95.591","TLE_LINE1":"1 46335U 20062L   21270.65887225  .00002178  00000-0  16499-3 0  9996","OBJECT_TYPE":"PAYLOAD","RA_OF_ASC_NODE":"107.1774","SITE":"AFETR","PERIAPSIS":"545.890","CLASSIFICATION_TYPE":"U","APOAPSIS":"548.419","GP_ID":"185667345"},{"MEAN_MOTION_DOT":"-0.00000360","OBJECT_NAME":"STARLINK-1738","EPHEMERIS_TYPE":"0","DECAY_DATE":null,"TIME_SYSTEM":"UTC","ECCENTRICITY":"0.00018410","NORAD_CAT_ID":"46336","MEAN_MOTION":"15.06401244","REF_FRAME":"TEME","ARG_OF_PERICENTER":"84.6119","LAUNCH_DATE":"2020-09-03","SEMIMAJOR_AXIS":"6925.345","EPOCH":"2021-09-27T18:46:37.698528","MEAN_ELEMENT_THEORY":"SGP4","TLE_LINE2":"2 46336  53.0545  86.6276 0001841  84.6119 275.5080 15.06401244 59822","BSTAR":"-0.00000527550000","GP_ID":"185668596","TLE_LINE1":"1 46336U 20062M   21270.78238077 -.00000360  00000-0 -52755-5 0  9996","RA_OF_ASC_NODE":"86.6276","OBJECT_TYPE":"PAYLOAD","SITE":"AFETR","APOAPSIS":"548.485","PERIAPSIS":"545.935","CLASSIFICATION_TYPE":"U","RCS_SIZE":"LARGE","INCLINATION":"53.0545","ELEMENT_SET_NO":"999","OBJECT_ID":"2020-062M","COUNTRY_CODE":"US","PERIOD":"95.592","CENTER_NAME":"EARTH","FILE":"3131463","MEAN_MOTION_DDOT":"0.0000000000000","REV_AT_EPOCH":"5982","MEAN_ANOMALY":"275.5080"},{"GP_ID":"185668343","RA_OF_ASC_NODE":"86.2562","TLE_LINE1":"1 46337U 20062N   21270.86345954  .00001125  00000-0  94371-4 0  9996","OBJECT_TYPE":"PAYLOAD","SITE":"AFETR","APOAPSIS":"548.184","PERIAPSIS":"546.218","CLASSIFICATION_TYPE":"U","RCS_SIZE":"LARGE","INCLINATION":"53.0512","ELEMENT_SET_NO":"999","OBJECT_ID":"2020-062N","PERIOD":"95.592","COUNTRY_CODE":"US","CENTER_NAME":"EARTH","FILE":"3131463","MEAN_MOTION_DDOT":"0.0000000000000","MEAN_ANOMALY":"291.9662","REV_AT_EPOCH":"5984","MEAN_MOTION_DOT":"0.00001125","OBJECT_NAME":"STARLINK-1750","EPHEMERIS_TYPE":"0","DECAY_DATE":null,"ECCENTRICITY":"0.00014190","TIME_SYSTEM":"UTC","NORAD_CAT_ID":"46337","MEAN_MOTION":"15.06404056","REF_FRAME":"TEME","ARG_OF_PERICENTER":"68.1478","LAUNCH_DATE":"2020-09-03","SEMIMAJOR_AXIS":"6925.336","EPOCH":"2021-09-27T20:43:22.904256","TLE_LINE2":"2 46337  53.0512  86.2562 0001419  68.1478 291.9662 15.06404056 59841","MEAN_ELEMENT_THEORY":"SGP4","BSTAR":"0.00009437100000"},{"EPOCH":"2021-09-27T20:19:32.831328","SEMIMAJOR_AXIS":"6925.385","TLE_LINE2":"2 46338  53.0523 106.3256 0002071  73.8237 286.2980 15.06388011 59559","MEAN_ELEMENT_THEORY":"SGP4","BSTAR":"-0.00009887400000","LAUNCH_DATE":"2020-09-03","ARG_OF_PERICENTER":"73.8237","REF_FRAME":"TEME","NORAD_CAT_ID":"46338","MEAN_MOTION":"15.06388011","MEAN_MOTION_DOT":"-0.00001754","TIME_SYSTEM":"UTC","DECAY_DATE":null,"ECCENTRICITY":"0.00020710","EPHEMERIS_TYPE":"0","OBJECT_NAME":"STARLINK-1752","FILE":"3131463","CENTER_NAME":"EARTH","REV_AT_EPOCH":"5955","MEAN_ANOMALY":"286.2980","MEAN_MOTION_DDOT":"0.0000000000000","INCLINATION":"53.0523","RCS_SIZE":"LARGE","PERIOD":"95.593","COUNTRY_CODE":"US","OBJECT_ID":"2020-062P","ELEMENT_SET_NO":"999","SITE":"AFETR","TLE_LINE1":"1 46338U 20062P   21270.84690777 -.00001754  00000-0 -98874-4 0  9993","OBJECT_TYPE":"PAYLOAD","RA_OF_ASC_NODE":"106.3256","PERIAPSIS":"545.816","CLASSIFICATION_TYPE":"U","APOAPSIS":"548.685","GP_ID":"185667095"},{"MEAN_MOTION_DDOT":"0.0000000000000","REV_AT_EPOCH":"6001","MEAN_ANOMALY":"83.0485","CENTER_NAME":"EARTH","FILE":"3131463","OBJECT_ID":"2020-062Q","ELEMENT_SET_NO":"999","COUNTRY_CODE":"US","PERIOD":"91.822","RCS_SIZE":"LARGE","INCLINATION":"53.0557","APOAPSIS":"369.419","PERIAPSIS":"358.343","CLASSIFICATION_TYPE":"U","TLE_LINE1":"1 46339U 20062Q   21270.72443742  .00494264  00000-0  40787-2 0  9997","RA_OF_ASC_NODE":"73.5347","OBJECT_TYPE":"PAYLOAD","SITE":"AFETR","GP_ID":"185667845","BSTAR":"0.00407870000000","TLE_LINE2":"2 46339  53.0557  73.5347 0008214 276.9596  83.0485 15.68260092 60014","MEAN_ELEMENT_THEORY":"SGP4","SEMIMAJOR_AXIS":"6742.016","EPOCH":"2021-09-27T17:23:11.393088","ARG_OF_PERICENTER":"276.9596","LAUNCH_DATE":"2020-09-03","NORAD_CAT_ID":"46339","MEAN_MOTION":"15.68260092","REF_FRAME":"TEME","OBJECT_NAME":"STARLINK-1757","EPHEMERIS_TYPE":"0","DECAY_DATE":null,"ECCENTRICITY":"0.00082140","TIME_SYSTEM":"UTC","MEAN_MOTION_DOT":"0.00494264"},{"MEAN_ANOMALY":"273.2140","REV_AT_EPOCH":"5955","MEAN_MOTION_DDOT":"0.0000000000000","FILE":"3131463","CENTER_NAME":"EARTH","PERIOD":"95.592","COUNTRY_CODE":"US","ELEMENT_SET_NO":"999","OBJECT_ID":"2020-062R","INCLINATION":"53.0538","RCS_SIZE":"LARGE","PERIAPSIS":"545.700","CLASSIFICATION_TYPE":"U","APOAPSIS":"548.761","SITE":"AFETR","TLE_LINE1":"1 46340U 20062R   21270.82014009 -.00000116  00000-0  11109-4 0  9998","RA_OF_ASC_NODE":"106.4566","OBJECT_TYPE":"PAYLOAD","GP_ID":"185668097","TLE_LINE2":"2 46340  53.0538 106.4566 0002210  86.9102 273.2140 15.06394547 59559","MEAN_ELEMENT_THEORY":"SGP4","BSTAR":"0.00001110900000","EPOCH":"2021-09-27T19:41:00.103776","SEMIMAJOR_AXIS":"6925.365","LAUNCH_DATE":"2020-09-03","ARG_OF_PERICENTER":"86.9102","REF_FRAME":"TEME","NORAD_CAT_ID":"46340","MEAN_MOTION":"15.06394547","ECCENTRICITY":"0.00022100","DECAY_DATE":null,"TIME_SYSTEM":"UTC","EPHEMERIS_TYPE":"0","OBJECT_NAME":"STARLINK-1759","MEAN_MOTION_DOT":"-0.00000116"},{"ARG_OF_PERICENTER":"93.6926","LAUNCH_DATE":"2020-09-03","SEMIMAJOR_AXIS":"6925.401","EPOCH":"2021-09-27T19:50:18.668544","MEAN_ELEMENT_THEORY":"SGP4","TLE_LINE2":"2 46341  53.0548  86.4376 0001837  93.6926 266.4273 15.06382864 59842","BSTAR":"0.00007703400000","MEAN_MOTION_DOT":"0.00000865","OBJECT_NAME":"STARLINK-1760","ECCENTRICITY":"0.00018370","DECAY_DATE":null,"TIME_SYSTEM":"UTC","EPHEMERIS_TYPE":"0","REF_FRAME":"TEME","MEAN_MOTION":"15.06382864","NORAD_CAT_ID":"46341","RCS_SIZE":"LARGE","INCLINATION":"53.0548","ELEMENT_SET_NO":"999","OBJECT_ID":"2020-062S","PERIOD":"95.593","COUNTRY_CODE":"US","CENTER_NAME":"EARTH","FILE":"3131463","MEAN_MOTION_DDOT":"0.0000000000000","REV_AT_EPOCH":"5984","MEAN_ANOMALY":"266.4273","GP_ID":"185668843","RA_OF_ASC_NODE":"86.4376","TLE_LINE1":"1 46341U 20062S   21270.82660496  .00000865  00000-0  77034-4 0  9995","OBJECT_TYPE":"PAYLOAD","SITE":"AFETR","CLASSIFICATION_TYPE":"U","PERIAPSIS":"545.994","APOAPSIS":"548.538"},{"APOAPSIS":"548.640","CLASSIFICATION_TYPE":"U","PERIAPSIS":"545.784","OBJECT_TYPE":"PAYLOAD","TLE_LINE1":"1 46342U 20062T   21270.87268497  .00001030  00000-0  88046-4 0  9996","RA_OF_ASC_NODE":"106.2234","SITE":"AFETR","GP_ID":"185667595","MEAN_MOTION_DDOT":"0.0000000000000","MEAN_ANOMALY":"277.5588","REV_AT_EPOCH":"5956","CENTER_NAME":"EARTH","FILE":"3131463","ELEMENT_SET_NO":"999","OBJECT_ID":"2020-062T","PERIOD":"95.592","COUNTRY_CODE":"US","RCS_SIZE":"LARGE","INCLINATION":"53.0548","NORAD_CAT_ID":"46342","MEAN_MOTION":"15.06400440","REF_FRAME":"TEME","OBJECT_NAME":"STARLINK-1762","EPHEMERIS_TYPE":"0","ECCENTRICITY":"0.00020620","DECAY_DATE":null,"TIME_SYSTEM":"UTC","MEAN_MOTION_DOT":"0.00001030","MEAN_ELEMENT_THEORY":"SGP4","TLE_LINE2":"2 46342  53.0548 106.2234 0002062  82.5635 277.5588 15.06400440 59564","BSTAR":"0.00008804600000","SEMIMAJOR_AXIS":"6925.347","EPOCH":"2021-09-27T20:56:39.981408","ARG_OF_PERICENTER":"82.5635","LAUNCH_DATE":"2020-09-03"}];
